COSMOS 2433 (720)       
1 32275U 07052A   26073.12561684 -.00000027  00000+0  00000+0 0  9992
2 32275  65.6294 319.1347 0001633 271.6855  88.3568  2.13104275143032
COSMOS 2432 (719)       
1 32276U 07052B   26073.37678159 -.00000026  00000+0  00000+0 0  9995
2 32276  65.6451 319.2522 0010390 332.5388 164.3883  2.13103436143068
COSMOS 2434 (721)       
1 32393U 07065A   26073.50259516  .00000001  00000+0  00000+0 0  9998
2 32393  64.3180 195.1067 0003360  68.6794 110.8332  2.13101403141756
COSMOS 2436 (723)       
1 32395U 07065C   26070.45881969  .00000016  00000+0  00000+0 0  9990
2 32395  64.3265 195.2806 0017388   6.1321 131.0155  2.13100266141644
COSMOS 2456 (730)       
1 36111U 09070A   26073.20989687  .00000053  00000+0  00000+0 0  9991
2 36111  64.9552  74.2106 0006389 306.0764 166.4975  2.13103787126400
COSMOS 2457 (733)       
1 36112U 09070B   26073.05274472  .00000052  00000+0  00000+0 0  9993
2 36112  64.9407  74.0614 0002113 199.4034 280.8951  2.13101225126407
COSMOS 2460 (732)       
1 36402U 10007C   26073.12581627 -.00000024  00000+0  00000+0 0  9998
2 36402  65.4743 317.6854 0001965  24.0874 153.1858  2.13106375124709
COSMOS 2476 (744)       
1 37867U 11064A   26073.41389750  .00000058  00000+0  00000+0 0  9999
2 37867  65.2155  76.0697 0025193 241.7016 295.7217  2.13103967111742
COSMOS 2477 (745)       
1 37868U 11064B   26069.19072576  .00000019  00000+0  00000+0 0  9992
2 37868  65.2195  76.2908 0022274 243.0435 115.1265  2.13102941111649
COSMOS 2475 (743)       
1 37869U 11064C   26073.10229134  .00000056  00000+0  00000+0 0  9994
2 37869  65.2287  76.1793 0028162 254.5882 179.9345  2.13101852111746
COSMOS 2485 (747)       
1 39155U 13019A   26072.18119299  .00000051  00000+0  00000+0 0  9998
2 39155  65.3652  76.8254 0025482 237.2132 122.5790  2.13103289100236
COSMOS 2492 (754)       
1 39620U 14012A   26072.60932640 -.00000027  00000+0  00000+0 0  9993
2 39620  65.3522 317.1866 0013034 327.2889  32.6912  2.13103479 93204
COSMOS 2500 (755)       
1 40001U 14032A   26073.24957361 -.00000022  00000+0  00000+0 0  9993
2 40001  65.2871 316.9195 0005019 197.8239 162.2208  2.13106194 91439
COSMOS 2501 (702K)      
1 40315U 14075A   26073.04100405  .00000000  00000+0  00000+0 0  9990
2 40315  63.6166 193.6632 0020968 206.5488 153.3288  2.13101375 87829
COSMOS 2514 (751)       
1 41330U 16008A   26073.02544367 -.00000023  00000+0  00000+0 0  9999
2 41330  65.0768 316.2748 0009011 206.8717 153.1435  2.13102734 78592
COSMOS 2522 (752)       
1 42939U 17055A   26073.33256676  .00000001  00000+0  00000+0 0  9990
2 42939  64.0786 195.1100 0007590 228.7729 131.1447  2.13101875 65959
COSMOS 2527 (756)       
1 43508U 18053A   26073.29385988  .00000059  00000+0  00000+0 0  9999
2 43508  65.5239  77.0711 0009620 246.0472 113.8919  2.13102379 60250
